[
    {
        "OBJECT_NAME": "COSMOS 2081 [GLONASS]",
        "OBJECT_ID": "1990-045C",
        "EPOCH": "2025-04-12T08:33:41.517792",
        "MEAN_MOTION": 2.13104942,
        "ECCENTRICITY": 0.0042898,
        "INCLINATION": 64.9927,
        "RA_OF_ASC_NODE": 323.5407,
        "ARG_OF_PERICENTER": 216.2933,
        "MEAN_ANOMALY": 321.0426,
        "EPHEMERIS_TYPE": 0,
        "CLASSIFICATION_TYPE": "U",
        "NORAD_CAT_ID": 20621,
        "ELEMENT_SET_NO": 999,
        "REV_AT_EPOCH": 27150,
        "BSTAR": 0,
        "MEAN_MOTION_DOT": -4.2e-07,
        "MEAN_MOTION_DDOT": 0
    },
    {
        "OBJECT_NAME": "COSMOS 2109 [GLONASS]",
        "OBJECT_ID": "1990-110A",
        "EPOCH": "2025-04-12T10:36:56.199168",
        "MEAN_MOTION": 2.13101622,
        "ECCENTRICITY": 0.0080324,
        "INCLINATION": 64.6775,
        "RA_OF_ASC_NODE": 85.8966,
        "ARG_OF_PERICENTER": 202.5443,
        "MEAN_ANOMALY": 281.274,
        "EPHEMERIS_TYPE": 0,
        "CLASSIFICATION_TYPE": "U",
        "NORAD_CAT_ID": 21006,
        "ELEMENT_SET_NO": 999,
        "REV_AT_EPOCH": 26730,
        "BSTAR": 0,
        "MEAN_MOTION_DOT": 2e-07,
        "MEAN_MOTION_DDOT": 0
    },
    {
        "OBJECT_NAME": "COSMOS 2140 [GLONASS]",
        "OBJECT_ID": "1991-025B",
        "EPOCH": "2025-04-12T14:47:38.715648",
        "MEAN_MOTION": 2.13101084,
        "ECCENTRICITY": 0.0025072,
        "INCLINATION": 64.6273,
        "RA_OF_ASC_NODE": 319.3658,
        "ARG_OF_PERICENTER": 216.6415,
        "MEAN_ANOMALY": 328.0135,
        "EPHEMERIS_TYPE": 0,
        "CLASSIFICATION_TYPE": "U",
        "NORAD_CAT_ID": 21217,
        "ELEMENT_SET_NO": 999,
        "REV_AT_EPOCH": 26476,
        "BSTAR": 0,
        "MEAN_MOTION_DOT": -3.8e-07,
        "MEAN_MOTION_DDOT": 0
    },
    {
        "OBJECT_NAME": "COSMOS 2141 [GLONASS]",
        "OBJECT_ID": "1991-025C",
        "EPOCH": "2025-04-12T09:20:30.670368",
        "MEAN_MOTION": 2.13103578,
        "ECCENTRICITY": 0.0004129,
        "INCLINATION": 64.62,
        "RA_OF_ASC_NODE": 319.2749,
        "ARG_OF_PERICENTER": 239.6012,
        "MEAN_ANOMALY": 117.5582,
        "EPHEMERIS_TYPE": 0,
        "CLASSIFICATION_TYPE": "U",
        "NORAD_CAT_ID": 21218,
        "ELEMENT_SET_NO": 999,
        "REV_AT_EPOCH": 26478,
        "BSTAR": 0,
        "MEAN_MOTION_DOT": -3.8e-07,
        "MEAN_MOTION_DDOT": 0
    },
    {
        "OBJECT_NAME": "COSMOS 2177 [GLONASS]",
        "OBJECT_ID": "1992-005A",
        "EPOCH": "2025-04-12T11:22:59.107872",
        "MEAN_MOTION": 2.13101266,
        "ECCENTRICITY": 0.0007494,
        "INCLINATION": 64.6364,
        "RA_OF_ASC_NODE": 84.7634,
        "ARG_OF_PERICENTER": 196.9403,
        "MEAN_ANOMALY": 2.0879,
        "EPHEMERIS_TYPE": 0,
        "CLASSIFICATION_TYPE": "U",
        "NORAD_CAT_ID": 21853,
        "ELEMENT_SET_NO": 999,
        "REV_AT_EPOCH": 25837,
        "BSTAR": 0,
        "MEAN_MOTION_DOT": 1.7e-07,
        "MEAN_MOTION_DDOT": 0
    },
    {
        "OBJECT_NAME": "COSMOS 2178 [GLONASS]",
        "OBJECT_ID": "1992-005B",
        "EPOCH": "2025-04-12T12:11:39.395904",
        "MEAN_MOTION": 2.13105927,
        "ECCENTRICITY": 0.0031357,
        "INCLINATION": 64.6412,
        "RA_OF_ASC_NODE": 84.8126,
        "ARG_OF_PERICENTER": 27.9204,
        "MEAN_ANOMALY": 122.7836,
        "EPHEMERIS_TYPE": 0,
        "CLASSIFICATION_TYPE": "U",
        "NORAD_CAT_ID": 21854,
        "ELEMENT_SET_NO": 999,
        "REV_AT_EPOCH": 25835,
        "BSTAR": 0,
        "MEAN_MOTION_DOT": 1.7e-07,
        "MEAN_MOTION_DDOT": 0
    },
    {
        "OBJECT_NAME": "COSMOS 2179 [GLONASS]",
        "OBJECT_ID": "1992-005C",
        "EPOCH": "2025-04-13T03:51:46.829088",
        "MEAN_MOTION": 2.13102654,
        "ECCENTRICITY": 0.0013307,
        "INCLINATION": 64.6406,
        "RA_OF_ASC_NODE": 84.803,
        "ARG_OF_PERICENTER": 246.0174,
        "MEAN_ANOMALY": 224.221,
        "EPHEMERIS_TYPE": 0,
        "CLASSIFICATION_TYPE": "U",
        "NORAD_CAT_ID": 21855,
        "ELEMENT_SET_NO": 999,
        "REV_AT_EPOCH": 25818,
        "BSTAR": 0,
        "MEAN_MOTION_DOT": 1.5e-07,
        "MEAN_MOTION_DDOT": 0
    },
    {
        "OBJECT_NAME": "COSMOS 2206 [GLONASS]",
        "OBJECT_ID": "1992-047A",
        "EPOCH": "2025-04-10T09:42:38.725632",
        "MEAN_MOTION": 2.13107552,
        "ECCENTRICITY": 0.0009941,
        "INCLINATION": 64.4234,
        "RA_OF_ASC_NODE": 317.3398,
        "ARG_OF_PERICENTER": 249.9842,
        "MEAN_ANOMALY": 107.0519,
        "EPHEMERIS_TYPE": 0,
        "CLASSIFICATION_TYPE": "U",
        "NORAD_CAT_ID": 22056,
        "ELEMENT_SET_NO": 999,
        "REV_AT_EPOCH": 25439,
        "BSTAR": 0,
        "MEAN_MOTION_DOT": -3.2e-07,
        "MEAN_MOTION_DDOT": 0
    },
    {
        "OBJECT_NAME": "COSMOS 2204 [GLONASS]",
        "OBJECT_ID": "1992-047B",
        "EPOCH": "2025-04-09T09:42:38.628864",
        "MEAN_MOTION": 2.13103237,
        "ECCENTRICITY": 0.0016051,
        "INCLINATION": 64.44,
        "RA_OF_ASC_NODE": 317.568,
        "ARG_OF_PERICENTER": 345.9259,
        "MEAN_ANOMALY": 6.8876,
        "EPHEMERIS_TYPE": 0,
        "CLASSIFICATION_TYPE": "U",
        "NORAD_CAT_ID": 22057,
        "ELEMENT_SET_NO": 999,
        "REV_AT_EPOCH": 25428,
        "BSTAR": 0,
        "MEAN_MOTION_DOT": -3.1e-07,
        "MEAN_MOTION_DDOT": 0
    },
    {
        "OBJECT_NAME": "COSMOS 2205 [GLONASS]",
        "OBJECT_ID": "1992-047C",
        "EPOCH": "2025-04-07T05:32:15.116928",
        "MEAN_MOTION": 2.13103043,
        "ECCENTRICITY": 0.001823,
        "INCLINATION": 64.4355,
        "RA_OF_ASC_NODE": 317.5827,
        "ARG_OF_PERICENTER": 223.1474,
        "MEAN_ANOMALY": 310.8671,
        "EPHEMERIS_TYPE": 0,
        "CLASSIFICATION_TYPE": "U",
        "NORAD_CAT_ID": 22058,
        "ELEMENT_SET_NO": 999,
        "REV_AT_EPOCH": 25441,
        "BSTAR": 0,
        "MEAN_MOTION_DOT": -3e-07,
        "MEAN_MOTION_DDOT": 0
    }
]