20621,COSMOS 2081 [GLONASS],1990,675.72,-1.0,-,64.99,Inactive,0,MEO,Kazakhstan,Russia/USSR,Unknown,Unknown,Unknown,1 20621U 90045C   25102.35673053 -.00000042  00000+0  00000+0 0  9996,2 20621  64.9927 323.5407 0042898 216.2933 321.0426  2.13104942271500,2.13104942,0.0042898,MEO
21006,COSMOS 2109 [GLONASS],1990,675.73,-1.0,-,64.68,Inactive,0,MEO,Kazakhstan,Russia/USSR,Unknown,Unknown,Unknown,1 21006U 90110A   25102.44231712  .00000020  00000+0  00000+0 0  9994,2 21006  64.6775  85.8966 0080324 202.5443 281.2740  2.13101622267305,2.13101622,0.0080324,MEO
21217,COSMOS 2140 [GLONASS],1991,675.74,-1.0,-,64.63,Inactive,0,MEO,Kazakhstan,Russia/USSR,Unknown,Unknown,Unknown,1 21217U 91025B   25102.61642032 -.00000038  00000+0  00000+0 0  9994,2 21217  64.6273 319.3658 0025072 216.6415 328.0135  2.13101084264766,2.13101084,0.0025072,MEO
21218,COSMOS 2141 [GLONASS],1991,675.73,-1.0,-,64.62,Inactive,0,MEO,Kazakhstan,Russia/USSR,Unknown,Unknown,Unknown,1 21218U 91025C   25102.38924387 -.00000038  00000+0  00000+0 0  9995,2 21218  64.6200 319.2749 0004129 239.6012 117.5582  2.13103578264784,2.13103578,0.0004129,MEO
21853,COSMOS 2177 [GLONASS],1992,675.74,-1.0,-,64.64,Inactive,0,MEO,Kazakhstan,Russia/USSR,Unknown,Unknown,Unknown,1 21853U 92005A   25102.47429523  .00000017  00000+0  00000+0 0  9997,2 21853  64.6364  84.7634 0007494 196.9403   2.0879  2.13101266258371,2.13101266,0.0007494,MEO
21854,COSMOS 2178 [GLONASS],1992,675.72,-1.0,-,64.64,Inactive,0,MEO,Kazakhstan,Russia/USSR,Unknown,Unknown,Unknown,1 21854U 92005B   25102.50809486  .00000017  00000+0  00000+0 0  9992,2 21854  64.6412  84.8126 0031357  27.9204 122.7836  2.13105927258359,2.13105927,0.0031357,MEO
21855,COSMOS 2179 [GLONASS],1992,675.73,-1.0,-,64.64,Inactive,0,MEO,Kazakhstan,Russia/USSR,Unknown,Unknown,Unknown,1 21855U 92005C   25103.16095867  .00000015  00000+0  00000+0 0  9994,2 21855  64.6406  84.8030 0013307 246.0174 224.2210  2.13102654258181,2.13102654,0.0013307,MEO
22056,COSMOS 2206 [GLONASS],1992,675.72,-1.0,-,64.42,Inactive,0,MEO,Kazakhstan,Russia/USSR,Unknown,Unknown,Unknown,1 22056U 92047A   25100.40461488 -.00000032  00000+0  00000+0 0  9994,2 22056  64.4234 317.3398 0009941 249.9842 107.0519  2.13107552254397,2.13107552,0.0009941,MEO
22057,COSMOS 2204 [GLONASS],1992,675.73,-1.0,-,64.44,Inactive,0,MEO,Kazakhstan,Russia/USSR,Unknown,Unknown,Unknown,1 22057U 92047B   25099.40461376 -.00000031  00000+0  00000+0 0  9997,2 22057  64.4400 317.5680 0016051 345.9259   6.8876  2.13103237254284,2.13103237,0.0016051,MEO
22058,COSMOS 2205 [GLONASS],1992,675.73,-1.0,-,64.44,Inactive,0,MEO,Kazakhstan,Russia/USSR,Unknown,Unknown,Unknown,1 22058U 92047C   25097.23073052 -.00000030  00000+0  00000+0 0  9996,2 22058  64.4355 317.5827 0018230 223.1474 310.8671  2.13103043254415,2.13103043,0.001823,MEO
